$$SOE
2460728.500000000, A.D. 2025-Feb-22 00:00:00.0000, -1.730406813537188E+08, 1.777612365220181E+08, 2.208282725225344E+07,
2460735.500000000, A.D. 2025-Mar-01 00:00:00.0000, -1.837776676758054E+08, 1.690605655721000E+08, 1.746382787742486E+07,
2460742.500000000, A.D. 2025-Mar-08 00:00:00.0000, -1.939460223674997E+08, 1.598367869456514E+08, 1.279067862550242E+07,
2460749.500000000, A.D. 2025-Mar-15 00:00:00.0000, -2.035236471803867E+08, 1.501262321182911E+08, 8.078464814727366E+06,
2460756.500000000, A.D. 2025-Mar-22 00:00:00.0000, -2.124914434013586E+08, 1.399659336084753E+08, 3.342004732831813E+06,
2460763.500000000, A.D. 2025-Mar-29 00:00:00.0000, -2.208333044420166E+08, 1.293933580807071E+08, -1.404288589344017E+06,
2460770.500000000, A.D. 2025-Apr-05 00:00:00.0000, -2.285359576870761E+08, 1.184462079695580E+08, -6.146505742283158E+06,
2460777.500000000, A.D. 2025-Apr-12 00:00:00.0000, -2.355888270475027E+08, 1.071622157987937E+08, -1.087124851207559E+07,
2460784.500000000, A.D. 2025-Apr-19 00:00:00.0000, -2.419839261290743E+08, 9.557894220589581E+07, -1.556565013991339E+07,
2460791.500000000, A.D. 2025-Apr-26 00:00:00.0000, -2.477157384890622E+08, 8.373359699109818E+07, -2.021740355885560E+07,
2460798.500000000, A.D. 2025-May-03 00:00:00.0000, -2.527810847440656E+08, 7.166288272405668E+07, -2.481478441155630E+07,
2460805.500000000, A.D. 2025-May-10 00:00:00.0000, -2.571789820866869E+08, 5.940285899403967E+07, -2.934666684628502E+07,
2460812.500000000, A.D. 2025-May-17 00:00:00.0000, -2.609105000356922E+08, 4.698882596673313E+07, -3.380253263783995E+07,
2460819.500000000, A.D. 2025-May-24 00:00:00.0000, -2.639786149800517E+08, 3.445522603380329E+07, -3.817247448387178E+07,
2460826.500000000, A.D. 2025-May-31 00:00:00.0000, -2.663880652089748E+08, 2.183556265227142E+07, -4.244719428707169E+07,
2460833.500000000, A.D. 2025-Jun-07 00:00:00.0000, -2.681452085139181E+08, 9.162336283696741E+06, -4.661799702446084E+07,
2460840.500000000, A.D. 2025-Jun-14 00:00:00.0000, -2.692578860774166E+08, -3.533004588207234E+06, -5.067678072186652E+07,
2460847.500000000, A.D. 2025-Jun-21 00:00:00.0000, -2.697352925015987E+08, -1.622010200972668E+07, -5.461602354256958E+07,
2460854.500000000, A.D. 2025-Jun-28 00:00:00.0000, -2.695878496593165E+08, -2.886971627460672E+07, -5.842876870758666E+07,
2460861.500000000, A.D. 2025-Jul-05 00:00:00.0000, -2.688270864561903E+08, -4.145374197888035E+07, -6.210860744424259E+07,
2460868.500000000, A.D. 2025-Jul-12 00:00:00.0000, -2.674655260775104E+08, -5.394521450675096E+07, -6.564966037883735E+07,
2460875.500000000, A.D. 2025-Jul-19 00:00:00.0000, -2.655165807642476E+08, -6.631830874062115E+07, -6.904655785282458E+07,
2460882.500000000, A.D. 2025-Jul-26 00:00:00.0000, -2.629944540029278E+08, -7.854833118082985E+07, -7.229441955097434E+07,
2460889.500000000, A.D. 2025-Aug-02 00:00:00.0000, -2.599140500372462E+08, -9.061170649528238E+07, -7.538883375888982E+07,
2460896.500000000, A.D. 2025-Aug-09 00:00:00.0000, -2.562908905564232E+08, -1.024859594685745E+08, -7.832583652083215E+07,
2460903.500000000, A.D. 2025-Aug-16 00:00:00.0000, -2.521410382887981E+08, -1.141496932801125E+08, -8.110189093712544E+07,
2460910.500000000, A.D. 2025-Aug-23 00:00:00.0000, -2.474810269573667E+08, -1.255825648729884E+08, -8.371386681669216E+07,
2460917.500000000, A.D. 2025-Aug-30 00:00:00.0000, -2.423277969752859E+08, -1.367652573926440E+08, -8.615902081273337E+07,
2460924.500000000, A.D. 2025-Sep-06 00:00:00.0000, -2.366986379752304E+08, -1.476794493079210E+08, -8.843497695522752E+07,
2460931.500000000, A.D. 2025-Sep-13 00:00:00.0000, -2.306111394999486E+08, -1.583077832381032E+08, -9.053970773013318E+07,
2460938.500000000, A.D. 2025-Sep-20 00:00:00.0000, -2.240831462319472E+08, -1.686338366045959E+08, -9.247151622085659E+07,
2460945.500000000, A.D. 2025-Sep-27 00:00:00.0000, -2.171327163539389E+08, -1.786420914031867E+08, -9.422901921592413E+07,
2460952.500000000, A.D. 2025-Oct-04 00:00:00.0000, -2.097780847054638E+08, -1.883179029036652E+08, -9.581113109387049E+07,
2460959.500000000, A.D. 2025-Oct-11 00:00:00.0000, -2.020376307607517E+08, -1.976474685152269E+08, -9.721704855131030E+07,
2460966.500000000, A.D. 2025-Oct-18 00:00:00.0000, -1.939298508049797E+08, -2.066177973464061E+08, -9.844623623585089E+07,
2460973.500000000, A.D. 2025-Oct-25 00:00:00.0000, -1.854733338465084E+08, -2.152166806652327E+08, -9.949841330327305E+07,
2460980.500000000, A.D. 2025-Nov-01 00:00:00.0000, -1.766867409204423E+08, -2.234326634237724E+08, -1.003735409019149E+08,
2460987.500000000, A.D. 2025-Nov-08 00:00:00.0000, -1.675887874590025E+08, -2.312550170253704E+08, -1.010718105827013E+08,
2460994.500000000, A.D. 2025-Nov-15 00:00:00.0000, -1.581982283059265E+08, -2.386737135135511E+08, -1.015936336402258E+08,
2461001.500000000, A.D. 2025-Nov-22 00:00:00.0000, -1.485338447139994E+08, -2.456794010606866E+08, -1.019396313875442E+08,
2461008.500000000, A.D. 2025-Nov-29 00:00:00.0000, -1.386144332384267E+08, -2.522633796993135E+08, -1.021106262384652E+08,
2461015.500000000, A.D. 2025-Dec-06 00:00:00.0000, -1.284587985790570E+08, -2.584175774905241E+08, -1.021076333755518E+08,
2461022.500000000, A.D. 2025-Dec-13 00:00:00.0000, -1.180857497269834E+08, -2.641345305429388E+08, -1.019318532905773E+08,
2461029.500000000, A.D. 2025-Dec-20 00:00:00.0000, -1.075140957242679E+08, -2.694073658922036E+08, -1.015846654031103E+08,
2461036.500000000, A.D. 2025-Dec-27 00:00:00.0000, -9.676264192121355E+07, -2.742297846741273E+08, -1.010676224144150E+08,
2461043.500000000, A.D. 2026-Jan-03 00:00:00.0000, -8.585018800824860E+07, -2.785960462273209E+08, -1.003824452845284E+08,
2461050.500000000, A.D. 2026-Jan-10 00:00:00.0000, -7.479552754421741E+07, -2.825009538236863E+08, -9.953101887743510E+07,
2461057.500000000, A.D. 2026-Jan-17 00:00:00.0000, -6.361744859731819E+07, -2.859398421339514E+08, -9.851538828643040E+07,
2461064.500000000, A.D. 2026-Jan-24 00:00:00.0000, -5.233473528229269E+07, -2.889085664155028E+08, -9.733775582681859E+07,
2461071.500000000, A.D. 2026-Jan-31 00:00:00.0000, -4.096617003979539E+07, -2.914034934366252E+08, -9.600047867849784E+07,
2461078.500000000, A.D. 2026-Feb-07 00:00:00.0000, -2.953053647205714E+07, -2.934214941998163E+08, -9.450606716723977E+07,
2461085.500000000, A.D. 2026-Feb-14 00:00:00.0000, -1.804662236182961E+07, -2.949599384834725E+08, -9.285718368652949E+07,
2461092.500000000, A.D. 2026-Feb-21 00:00:00.0000, -6.533222369657960E+06, -2.960166906285849E+08, -9.105664222580813E+07,
2461099.500000000, A.D. 2026-Feb-28 00:00:00.0000, 4.990858620782769E+06, -2.965901054208501E+08, -8.910740828957535E+07,
2461106.500000000, A.D. 2026-Mar-07 00:00:00.0000, 1.650679956480628E+07, -2.966790260213038E+08, -8.701259915658890E+07,
2461113.500000000, A.D. 2026-Mar-14 00:00:00.0000, 2.799575761706939E+07, -2.962827862839012E+08, -8.477548490510322E+07,
2461120.500000000, A.D. 2026-Mar-21 00:00:00.0000, 3.943886468756454E+07, -2.954012145739862E+08, -8.239949011443840E+07,
2461127.500000000, A.D. 2026-Mar-28 00:00:00.0000, 5.081722429757694E+07, -2.940346380729694E+08, -7.988819595818232E+07,
2461134.500000000, A.D. 2026-Apr-04 00:00:00.0000, 6.211190824781377E+07, -2.921838885484895E+08, -7.724534269517227E+07,
2461141.500000000, A.D. 2026-Apr-11 00:00:00.0000, 7.330395349229786E+07, -2.898503099644985E+08, -7.447483259479579E+07,
2461148.500000000, A.D. 2026-Apr-18 00:00:00.0000, 8.437435950101532E+07, -2.870357679529802E+08, -7.158073329269977E+07,
2461155.500000000, A.D. 2026-Apr-25 00:00:00.0000, 9.530408628627282E+07, -2.837426611457732E+08, -6.856728155887087E+07,
2461162.500000000, A.D. 2026-May-02 00:00:00.0000, 1.060740532619150E+08, -2.799739344067855E+08, -6.543888746087547E+07,
2461169.500000000, A.D. 2026-May-09 00:00:00.0000, 1.166651392101942E+08, -2.757330940430443E+08, -6.220013891686818E+07,
2461176.500000000, A.D. 2026-May-16 00:00:00.0000, 1.270581838934067E+08, -2.710242248719151E+08, -5.885580663865241E+07,
2461183.500000000, A.D. 2026-May-23 00:00:00.0000, 1.372339915286183E+08, -2.658520081358294E+08, -5.541084935895598E+07,
2461190.500000000, A.D. 2026-May-30 00:00:00.0000, 1.471733342231582E+08, -2.602217399503777E+08, -5.187041909377600E+07,
2461197.500000000, A.D. 2026-Jun-06 00:00:00.0000, 1.568569552428815E+08, -2.541393535530489E+08, -4.823986664078403E+07,
2461204.500000000, A.D. 2026-Jun-13 00:00:00.0000, 1.662655759861558E+08, -2.476114451395175E+08, -4.452474759269632E+07,
2461211.500000000, A.D. 2026-Jun-20 00:00:00.0000, 1.753799063867515E+08, -2.406453003426226E+08, -4.073082853525065E+07,
2461218.500000000, A.D. 2026-Jun-27 00:00:00.0000, 1.841806572863522E+08, -2.332489216640797E+08, -3.686409324969353E+07,
2461225.500000000, A.D. 2026-Jul-04 00:00:00.0000, 1.926485550321769E+08, -2.254310575874680E+08, -3.293074892292123E+07,
2461232.500000000, A.D. 2026-Jul-11 00:00:00.0000, 2.007643588277320E+08, -2.172012334396575E+08, -2.893723233044079E+07,
2461239.500000000, A.D. 2026-Jul-18 00:00:00.0000, 2.085088812223438E+08, -2.085697838898544E+08, -2.489021591972603E+07,
2461246.500000000, A.D. 2026-Jul-25 00:00:00.0000, 2.158630120736347E+08, -1.995478869747841E+08, -2.079661370551789E+07,
2461253.500000000, A.D. 2026-Aug-01 00:00:00.0000, 2.228077463538995E+08, -1.901475995586236E+08, -1.666358688152815E+07,
2461260.500000000, A.D. 2026-Aug-08 00:00:00.0000, 2.293242163523180E+08, -1.803818940848852E+08, -1.249854905261731E+07,
2461267.500000000, A.D. 2026-Aug-15 00:00:00.0000, 2.353937290432418E+08, -1.702646959522359E+08, -8.309170953931749E+06,
2461274.500000000, A.D. 2026-Aug-22 00:00:00.0000, 2.409978082234740E+08, -1.598109200348313E+08, -4.103384334589213E+06,
2461281.500000000, A.D. 2026-Aug-29 00:00:00.0000, 2.461182394902054E+08, -1.490365074009790E+08, 1.106152615452558E+05,
2461288.500000000, A.D. 2026-Sep-05 00:00:00.0000, 2.507371205576335E+08, -1.379584647028131E+08, 4.324366571821310E+06,
$$EOE